{
    "links": {
        "self": "http://www.neowsapp.com/rest/v1/neo/3788138?api_key=iIulBulltgU6a56xZRHN4H3l9WmuAYTsLGpBGhQ2"
    },
    "id": "3788138",
    "neo_reference_id": "3788138",
    "name": "(2017 UZ42)",
    "designation": "2017 UZ42",
    "nasa_jpl_url": "http://ssd.jpl.nasa.gov/sbdb.cgi?sstr=3788138",
    "absolute_magnitude_h": 18.8,
    "estimated_diameter": {
        "kilometers": {
            "estimated_diameter_min": 0.4619074603,
            "estimated_diameter_max": 1.0328564805
        },
        "meters": {
            "estimated_diameter_min": 461.9074602816,
            "estimated_diameter_max": 1032.8564805039
        },
        "miles": {
            "estimated_diameter_min": 0.2870159005,
            "estimated_diameter_max": 0.6417870641
        },
        "feet": {
            "estimated_diameter_min": 1515.4444719902,
            "estimated_diameter_max": 3388.6368554964
        }
    },
    "is_potentially_hazardous_asteroid": false,
    "close_approach_data": [
        {
            "close_approach_date": "1987-10-17",
            "close_approach_date_full": "1987-Oct-17 04:56",
            "epoch_date_close_approach": 561444960000,
            "relative_velocity": {
                "kilometers_per_second": "22.5711198578",
                "kilometers_per_hour": "81256.0314880796",
                "miles_per_hour": "50489.3380099126"
            },
            "miss_distance": {
                "astronomical": "0.1885688108",
                "lunar": "73.3532674012",
                "kilometers": "28209492.444112996",
                "miles": "17528565.7943755048"
            },
            "orbiting_body": "Earth"
        },
        {
            "close_approach_date": "1994-02-20",
            "close_approach_date_full": "1994-Feb-20 10:21",
            "epoch_date_close_approach": 761739660000,
            "relative_velocity": {
                "kilometers_per_second": "7.8773521891",
                "kilometers_per_hour": "28358.4678807788",
                "miles_per_hour": "17620.8491118095"
            },
            "miss_distance": {
                "astronomical": "1.3831641794",
                "lunar": "538.0508657866",
                "kilometers": "206918415.098537878",
                "miles": "128573141.1264555964"
            },
            "orbiting_body": "Juptr"
        },
        {
            "close_approach_date": "2017-10-31",
            "close_approach_date_full": "2017-Oct-31 20:45",
            "epoch_date_close_approach": 1509482700000,
            "relative_velocity": {
                "kilometers_per_second": "22.8503257989",
                "kilometers_per_hour": "82261.1728760584",
                "miles_per_hour": "51113.8937795708"
            },
            "miss_distance": {
                "astronomical": "0.2286194042",
                "lunar": "88.9329482338",
                "kilometers": "34200975.908989054",
                "miles": "21251500.9846507852"
            },
            "orbiting_body": "Earth"
        },
        {
            "close_approach_date": "2030-10-04",
            "close_approach_date_full": "2030-Oct-04 23:38",
            "epoch_date_close_approach": 1917387480000,
            "relative_velocity": {
                "kilometers_per_second": "24.79197821",
                "kilometers_per_hour": "89251.1215560338",
                "miles_per_hour": "55457.17605797"
            },
            "miss_distance": {
                "astronomical": "0.4585444162",
                "lunar": "178.3737779018",
                "kilometers": "68597267.963913494",
                "miles": "42624365.7946704572"
            },
            "orbiting_body": "Earth"
        },
        {
            "close_approach_date": "2041-06-11",
            "close_approach_date_full": "2041-Jun-11 20:30",
            "epoch_date_close_approach": 2254595400000,
            "relative_velocity": {
                "kilometers_per_second": "7.6526958613",
                "kilometers_per_hour": "27549.7051007634",
                "miles_per_hour": "17118.3153721938"
            },
            "miss_distance": {
                "astronomical": "1.256209802",
                "lunar": "488.665612978",
                "kilometers": "187926310.65232174",
                "miles": "116771994.650010412"
            },
            "orbiting_body": "Juptr"
        }
    ],
    "orbital_data": {
        "orbit_id": "15",
        "orbit_determination_date": "2018-01-14 06:59:19",
        "first_observation_date": "2017-10-27",
        "last_observation_date": "2018-01-14",
        "data_arc_in_days": 79,
        "observations_used": 156,
        "orbit_uncertainty": "6",
        "minimum_orbit_intersection": ".106979",
        "jupiter_tisserand_invariant": "2.883",
        "epoch_osculation": "2459000.5",
        "eccentricity": ".5835853721592464",
        "semi_major_axis": "2.643567223681203",
        "inclination": "37.78753496441085",
        "ascending_node_longitude": "30.7519354824778",
        "orbital_period": "1569.943289415349",
        "perihelion_distance": "1.100820061621222",
        "perihelion_argument": "357.8216054500416",
        "aphelion_distance": "4.186314385741183",
        "perihelion_time": "2459629.574660815091",
        "mean_anomaly": "215.7483703900095",
        "mean_motion": ".2293076459685783",
        "equinox": "J2000",
        "orbit_class": {
            "orbit_class_type": "AMO",
            "orbit_class_description": "Near-Earth asteroid orbits similar to that of 1221 Amor",
            "orbit_class_range": "1.017 AU < q (perihelion) < 1.3 AU"
        }
    },
    "is_sentry_object": false
}